[{"OBJECT_NAME":"STARLINK-32491","OBJECT_ID":"2024-216M","EPOCH":"2026-03-09T21:58:01.397280","MEAN_MOTION":15.27573278,"ECCENTRICITY":0.00017465,"INCLINATION":43.0022,"RA_OF_ASC_NODE":262.53,"ARG_OF_PERICENTER":286.5285,"MEAN_ANOMALY":73.5375,"EPHEMERIS_TYPE":0,"CLASSIFICATION_TYPE":"U","NORAD_CAT_ID":62043,"ELEMENT_SET_NO":999,"REV_AT_EPOCH":7382,"BSTAR":0.00094974963,"MEAN_MOTION_DOT":0.0002596,"MEAN_MOTION_DDOT":0},{"OBJECT_NAME":"OV1-9 R\/B","OBJECT_ID":"1966-111D","EPOCH":"2026-03-09T11:11:11.790816","MEAN_MOTION":10.49794392,"ECCENTRICITY":0.22219732,"INCLINATION":99.1017,"RA_OF_ASC_NODE":33.3571,"ARG_OF_PERICENTER":215.4287,"MEAN_ANOMALY":127.6991,"EPHEMERIS_TYPE":0,"CLASSIFICATION_TYPE":"U","NORAD_CAT_ID":2622,"ELEMENT_SET_NO":999,"REV_AT_EPOCH":23443,"BSTAR":0.00023551925,"MEAN_MOTION_DOT":5.76e-6,"MEAN_MOTION_DDOT":0}]
